{
  "type": "FeatureCollection",
  "features": [
    {
      "type": "Feature",
      "properties": {
        "norad_id": 66376,
        "name": "SHIYAN-32 01",
        "group": "last-30-days",
        "lat": 8.839477049462864,
        "lon": 9.622354787954084,
        "alt_km": 445.0759560931547,
        "timestamp": "2025-12-08T21:31:03.445478+00:00",
        "meta_object_name": "SHIYAN-32 01",
        "meta_object_id": "2025-255A",
        "meta_epoch": "2025-12-08T14:34:11.947872",
        "meta_mean_motion": 15.42583041,
        "meta_eccentricity": 0.00135643,
        "meta_inclination": 52.995,
        "meta_ra_of_asc_node": 197.7341,
        "meta_arg_of_pericenter": 28.925,
        "meta_mean_anomaly": 331.2503,
        "meta_ephemeris_type": 0,
        "meta_classification_type": "U",
        "meta_norad_cat_id": 66376,
        "meta_element_set_no": 999,
        "meta_rev_at_epoch": 471,
        "meta_bstar": 0.000548405,
        "meta_mean_motion_dot": 0.00023939,
        "meta_mean_motion_ddot": 0,
        "tle_line1": "1 66376U 25255A   25342.60708273  .00023939  00000+0  54840-3 0  9995",
        "tle_line2": "2 66376  52.9950 197.7341 0013564  28.9250 331.2503 15.42583041  4719"
      },
      "geometry": {
        "type": "Point",
        "coordinates": [
          9.622354787954084,
          8.839477049462864
        ]
      }
    },
    {
      "type": "Feature",
      "properties": {
        "norad_id": 66377,
        "name": "CZ-11 DEB",
        "group": "last-30-days",
        "lat": -52.32870843623312,
        "lon": 93.82531224231361,
        "alt_km": 444.0843663063606,
        "timestamp": "2025-12-08T21:31:03.445528+00:00",
        "meta_object_name": "CZ-11 DEB",
        "meta_object_id": "2025-255B",
        "meta_epoch": "2025-12-08T15:43:30.202752",
        "meta_mean_motion": 15.44112254,
        "meta_eccentricity": 0.00138879,
        "meta_inclination": 52.9948,
        "meta_ra_of_asc_node": 197.321,
        "meta_arg_of_pericenter": 26.378,
        "meta_mean_anomaly": 333.7929,
        "meta_ephemeris_type": 0,
        "meta_classification_type": "U",
        "meta_norad_cat_id": 66377,
        "meta_element_set_no": 999,
        "meta_rev_at_epoch": 458,
        "meta_bstar": 0.0008659602,
        "meta_mean_motion_dot": 0.00040169,
        "meta_mean_motion_ddot": 0,
        "tle_line1": "1 66377U 25255B   25342.65521068  .00040169  00000+0  86596-3 0  9993",
        "tle_line2": "2 66377  52.9948 197.3210 0013887  26.3780 333.7929 15.44112254  4586"
      },
      "geometry": {
        "type": "Point",
        "coordinates": [
          93.82531224231361,
          -52.32870843623312
        ]
      }
    },
    {
      "type": "Feature",
      "properties": {
        "norad_id": 66378,
        "name": "SHIYAN-32 02",
        "group": "last-30-days",
        "lat": -41.95993038975589,
        "lon": 153.38354986017256,
        "alt_km": 434.89314665636084,
        "timestamp": "2025-12-08T21:31:03.445545+00:00",
        "meta_object_name": "SHIYAN-32 02",
        "meta_object_id": "2025-255C",
        "meta_epoch": "2025-12-08T13:59:56.628384",
        "meta_mean_motion": 15.44754596,
        "meta_eccentricity": 0.00121671,
        "meta_inclination": 52.992,
        "meta_ra_of_asc_node": 197.5829,
        "meta_arg_of_pericenter": 21.2887,
        "meta_mean_anomaly": 338.8622,
        "meta_ephemeris_type": 0,
        "meta_classification_type": "U",
        "meta_norad_cat_id": 66378,
        "meta_element_set_no": 999,
        "meta_rev_at_epoch": 457,
        "meta_bstar": 0.00083650009,
        "meta_mean_motion_dot": 0.00039617,
        "meta_mean_motion_ddot": 0,
        "tle_line1": "1 66378U 25255C   25342.58329431  .00039617  00000+0  83650-3 0  9990",
        "tle_line2": "2 66378  52.9920 197.5829 0012167  21.2887 338.8622 15.44754596  4573"
      },
      "geometry": {
        "type": "Point",
        "coordinates": [
          153.38354986017256,
          -41.95993038975589
        ]
      }
    },
    {
      "type": "Feature",
      "properties": {
        "norad_id": 66379,
        "name": "SHIYAN-32 03",
        "group": "last-30-days",
        "lat": -21.22670333331739,
        "lon": 33.31780425715361,
        "alt_km": 451.3472754610648,
        "timestamp": "2025-12-08T21:31:03.445558+00:00",
        "meta_object_name": "SHIYAN-32 03",
        "meta_object_id": "2025-255D",
        "meta_epoch": "2025-12-08T14:24:24.018336",
        "meta_mean_motion": 15.42896316,
        "meta_eccentricity": 0.00156596,
        "meta_inclination": 52.9956,
        "meta_ra_of_asc_node": 197.6924,
        "meta_arg_of_pericenter": 29.9563,
        "meta_mean_anomaly": 330.2334,
        "meta_ephemeris_type": 0,
        "meta_classification_type": "U",
        "meta_norad_cat_id": 66379,
        "meta_element_set_no": 999,
        "meta_rev_at_epoch": 459,
        "meta_bstar": 0.00044150338,
        "meta_mean_motion_dot": 0.00019405,
        "meta_mean_motion_ddot": 0,
        "tle_line1": "1 66379U 25255D   25342.60027799  .00019405  00000+0  44150-3 0  9991",
        "tle_line2": "2 66379  52.9956 197.6924 0015659  29.9563 330.2334 15.42896316  4598"
      },
      "geometry": {
        "type": "Point",
        "coordinates": [
          33.31780425715361,
          -21.22670333331739
        ]
      }
    },
    {
      "type": "Feature",
      "properties": {
        "norad_id": 66380,
        "name": "STARLINK-35139",
        "group": "last-30-days",
        "lat": 53.11285263470766,
        "lon": 10.20899352567451,
        "alt_km": 439.8199138353366,
        "timestamp": "2025-12-08T21:31:03.445572+00:00",
        "meta_object_name": "STARLINK-35139",
        "meta_object_id": "2025-257A",
        "meta_epoch": "2025-12-08T14:00:01.999872",
        "meta_mean_motion": 15.39677109,
        "meta_eccentricity": 8.108e-05,
        "meta_inclination": 53.1597,
        "meta_ra_of_asc_node": 284.2403,
        "meta_arg_of_pericenter": 68.58,
        "meta_mean_anomaly": 82.9069,
        "meta_ephemeris_type": 0,
        "meta_classification_type": "U",
        "meta_norad_cat_id": 66380,
        "meta_element_set_no": 999,
        "meta_rev_at_epoch": 576,
        "meta_bstar": -0.0055644975,
        "meta_mean_motion_dot": -0.00217155,
        "meta_mean_motion_ddot": 0,
        "tle_line1": "1 66380U 25257A   25342.58335648 -.00217155  00000+0 -55645-2 0  9991",
        "tle_line2": "2 66380  53.1597 284.2403 0000810  68.5800  82.9069 15.39677109  5764"
      },
      "geometry": {
        "type": "Point",
        "coordinates": [
          10.20899352567451,
          53.11285263470766
        ]
      }
    },
    {
      "type": "Feature",
      "properties": {
        "norad_id": 66381,
        "name": "STARLINK-35158",
        "group": "last-30-days",
        "lat": 52.43376079462299,
        "lon": -0.13628368837820393,
        "alt_km": 450.26803674293205,
        "timestamp": "2025-12-08T21:31:03.445585+00:00",
        "meta_object_name": "STARLINK-35158",
        "meta_object_id": "2025-257B",
        "meta_epoch": "2025-12-08T08:40:19.845120",
        "meta_mean_motion": 15.37258046,
        "meta_eccentricity": 0.00139812,
        "meta_inclination": 53.1599,
        "meta_ra_of_asc_node": 285.2862,
        "meta_arg_of_pericenter": 163.4456,
        "meta_mean_anomaly": 196.7007,
        "meta_ephemeris_type": 0,
        "meta_classification_type": "U",
        "meta_norad_cat_id": 66381,
        "meta_element_set_no": 999,
        "meta_rev_at_epoch": 569,
        "meta_bstar": -0.039296834,
        "meta_mean_motion_dot": -0.01336514,
        "meta_mean_motion_ddot": 0,
        "tle_line1": "1 66381U 25257B   25342.36134080 -.01336514  00000+0 -39297-1 0  9991",
        "tle_line2": "2 66381  53.1599 285.2862 0013981 163.4456 196.7007 15.37258046  5693"
      },
      "geometry": {
        "type": "Point",
        "coordinates": [
          -0.13628368837820393,
          52.43376079462299
        ]
      }
    },
    {
      "type": "Feature",
      "properties": {
        "norad_id": 66382,
        "name": "STARLINK-35639",
        "group": "last-30-days",
        "lat": 46.84067893235224,
        "lon": 49.628330516446155,
        "alt_km": 439.44153133313466,
        "timestamp": "2025-12-08T21:31:03.445600+00:00",
        "meta_object_name": "STARLINK-35639",
        "meta_object_id": "2025-257C",
        "meta_epoch": "2025-12-08T13:14:03.644448",
        "meta_mean_motion": 15.39624157,
        "meta_eccentricity": 0.00022233,
        "meta_inclination": 53.1597,
        "meta_ra_of_asc_node": 284.3387,
        "meta_arg_of_pericenter": 86.4104,
        "meta_mean_anomaly": 273.7155,
        "meta_ephemeris_type": 0,
        "meta_classification_type": "U",
        "meta_norad_cat_id": 66382,
        "meta_element_set_no": 999,
        "meta_rev_at_epoch": 572,
        "meta_bstar": 0.0020006019,
        "meta_mean_motion_dot": 0.00080485,
        "meta_mean_motion_ddot": 0,
        "tle_line1": "1 66382U 25257C   25342.55143107  .00080485  00000+0  20006-2 0  9992",
        "tle_line2": "2 66382  53.1597 284.3387 0002223  86.4104 273.7155 15.39624157  5721"
      },
      "geometry": {
        "type": "Point",
        "coordinates": [
          49.628330516446155,
          46.84067893235224
        ]
      }
    }
  ]
}